start=new Date('2022-12-12T00:00:00.000Z').valueOf();
sats=[{"TLE_LINE2":"2 53079  97.6550 164.2950 0002689   6.7672 353.3588 15.01263190 23837","SITE":"AFWTR","MEAN_MOTION":"15.01263190","ELEMENT_SET_NO":"999","APOAPSIS":"564.868","EPHEMERIS_TYPE":"0","OBJECT_ID":"2022-077AN","TIME_SYSTEM":"UTC","TLE_LINE1":"1 53079U 22077AN  22345.50974509  .00006881  00000-0  53976-3 0  9993","REF_FRAME":"TEME","INCLINATION":"97.6550","CENTER_NAME":"EARTH","ECCENTRICITY":"0.00026890","PERIAPSIS":"561.136","OBJECT_NAME":"STARLINK-4327","CLASSIFICATION_TYPE":"U","SEMIMAJOR_AXIS":"6941.137","OBJECT_TYPE":"PAYLOAD","MEAN_ELEMENT_THEORY":"SGP4","FILE":"3691301","DECAY_DATE":null,"MEAN_MOTION_DDOT":"0.0000000000000","LAUNCH_DATE":"2022-07-11","BSTAR":"0.00053976000000","EPOCH":"2022-12-11T12:14:01.975776","GP_ID":"220058168","REV_AT_EPOCH":"2383","ARG_OF_PERICENTER":"6.7672","RCS_SIZE":"LARGE","MEAN_ANOMALY":"353.3588","RA_OF_ASC_NODE":"164.2950","COUNTRY_CODE":"US","PERIOD":"95.919","NORAD_CAT_ID":"53079","MEAN_MOTION_DOT":"0.00006881"},{"CLASSIFICATION_TYPE":"U","SEMIMAJOR_AXIS":"6941.026","OBJECT_TYPE":"PAYLOAD","MEAN_ELEMENT_THEORY":"SGP4","FILE":"3691301","DECAY_DATE":null,"EPOCH":"2022-12-11T12:19:18.777792","LAUNCH_DATE":"2022-07-11","MEAN_MOTION_DDOT":"0.0000000000000","BSTAR":"-0.00067252000000","GP_ID":"220057817","REV_AT_EPOCH":"2383","ARG_OF_PERICENTER":"19.7732","RCS_SIZE":"LARGE","MEAN_ANOMALY":"340.3586","RA_OF_ASC_NODE":"164.2934","PERIOD":"95.917","COUNTRY_CODE":"US","MEAN_MOTION_DOT":"-0.00008696","NORAD_CAT_ID":"53080","SITE":"AFWTR","TLE_LINE2":"2 53080  97.6552 164.2934 0002427  19.7732 340.3586 15.01299188 23834","MEAN_MOTION":"15.01299188","APOAPSIS":"564.576","ELEMENT_SET_NO":"999","EPHEMERIS_TYPE":"0","OBJECT_ID":"2022-077AP","TIME_SYSTEM":"UTC","TLE_LINE1":"1 53080U 22077AP  22345.51341178 -.00008696  00000-0 -67252-3 0  9996","REF_FRAME":"TEME","INCLINATION":"97.6552","CENTER_NAME":"EARTH","ECCENTRICITY":"0.00024270","PERIAPSIS":"561.206","OBJECT_NAME":"STARLINK-4330"},{"EPHEMERIS_TYPE":"0","MEAN_MOTION":"15.01261831","APOAPSIS":"564.986","ELEMENT_SET_NO":"999","TLE_LINE2":"2 53081  97.6535 164.3529 0002852  13.4604 346.6695 15.01261831 23269","SITE":"AFWTR","TLE_LINE1":"1 53081U 22077AQ  22345.57292076  .00001601  00000-0  12920-3 0  9994","OBJECT_ID":"2022-077AQ","TIME_SYSTEM":"UTC","CENTER_NAME":"EARTH","REF_FRAME":"TEME","INCLINATION":"97.6535","OBJECT_NAME":"STARLINK-4326","ECCENTRICITY":"0.00028520","PERIAPSIS":"561.027","FILE":"3691993","DECAY_DATE":null,"MEAN_ELEMENT_THEORY":"SGP4","OBJECT_TYPE":"PAYLOAD","CLASSIFICATION_TYPE":"U","SEMIMAJOR_AXIS":"6941.141","GP_ID":"220099289","MEAN_MOTION_DDOT":"0.0000000000000","LAUNCH_DATE":"2022-07-11","BSTAR":"0.00012920000000","EPOCH":"2022-12-11T13:45:00.353664","MEAN_ANOMALY":"346.6695","RCS_SIZE":"LARGE","REV_AT_EPOCH":"2326","ARG_OF_PERICENTER":"13.4604","NORAD_CAT_ID":"53081","MEAN_MOTION_DOT":"0.00001601","COUNTRY_CODE":"US","PERIOD":"95.919","RA_OF_ASC_NODE":"164.3529"},{"OBJECT_NAME":"STARLINK-4321","PERIAPSIS":"560.669","ECCENTRICITY":"0.00033870","CENTER_NAME":"EARTH","INCLINATION":"97.6534","REF_FRAME":"TEME","TLE_LINE1":"1 53082U 22077AR  22345.50787754  .00000200  00000-0  20173-4 0  9994","TIME_SYSTEM":"UTC","OBJECT_ID":"2022-077AR","EPHEMERIS_TYPE":"0","ELEMENT_SET_NO":"999","APOAPSIS":"565.371","MEAN_MOTION":"15.01257287","SITE":"AFWTR","TLE_LINE2":"2 53082  97.6534 164.2901 0003387  20.2347 339.9011 15.01257287 23252","NORAD_CAT_ID":"53082","MEAN_MOTION_DOT":"0.00000200","COUNTRY_CODE":"US","PERIOD":"95.920","RA_OF_ASC_NODE":"164.2901","MEAN_ANOMALY":"339.9011","RCS_SIZE":"LARGE","ARG_OF_PERICENTER":"20.2347","REV_AT_EPOCH":"2325","GP_ID":"220055905","LAUNCH_DATE":"2022-07-11","MEAN_MOTION_DDOT":"0.0000000000000","EPOCH":"2022-12-11T12:11:20.619456","BSTAR":"0.00002017300000","DECAY_DATE":null,"FILE":"3691213","MEAN_ELEMENT_THEORY":"SGP4","OBJECT_TYPE":"PAYLOAD","CLASSIFICATION_TYPE":"U","SEMIMAJOR_AXIS":"6941.155"},{"ECCENTRICITY":"0.00025550","PERIAPSIS":"561.211","OBJECT_NAME":"STARLINK-4251","INCLINATION":"97.6504","REF_FRAME":"TEME","CENTER_NAME":"EARTH","TIME_SYSTEM":"UTC","OBJECT_ID":"2022-077AS","TLE_LINE1":"1 53083U 22077AS  22345.49492564  .00009561  00000-0  74774-3 0  9999","SITE":"AFWTR","TLE_LINE2":"2 53083  97.6504 164.2653 0002555  17.0176 343.1133 15.01268758 23251","APOAPSIS":"564.758","ELEMENT_SET_NO":"999","MEAN_MOTION":"15.01268758","EPHEMERIS_TYPE":"0","RA_OF_ASC_NODE":"164.2653","PERIOD":"95.919","COUNTRY_CODE":"US","MEAN_MOTION_DOT":"0.00009561","NORAD_CAT_ID":"53083","ARG_OF_PERICENTER":"17.0176","REV_AT_EPOCH":"2325","RCS_SIZE":"LARGE","MEAN_ANOMALY":"343.1133","LAUNCH_DATE":"2022-07-11","MEAN_MOTION_DDOT":"0.0000000000000","BSTAR":"0.00074774000000","EPOCH":"2022-12-11T11:52:41.575296","GP_ID":"220056155","SEMIMAJOR_AXIS":"6941.120","CLASSIFICATION_TYPE":"U","OBJECT_TYPE":"PAYLOAD","MEAN_ELEMENT_THEORY":"SGP4","DECAY_DATE":null,"FILE":"3691213"},{"ECCENTRICITY":"0.00027980","PERIAPSIS":"561.089","OBJECT_NAME":"STARLINK-4319","INCLINATION":"97.6541","REF_FRAME":"TEME","CENTER_NAME":"EARTH","TLE_LINE1":"1 53084U 22077AT  22345.57267800  .00001387  00000-0  11255-3 0  9995","TIME_SYSTEM":"UTC","OBJECT_ID":"2022-077AT","SITE":"AFWTR","TLE_LINE2":"2 53084  97.6541 164.3520 0002798   3.2676 356.8566 15.01253638 23261","EPHEMERIS_TYPE":"0","APOAPSIS":"564.974","ELEMENT_SET_NO":"999","MEAN_MOTION":"15.01253638","RA_OF_ASC_NODE":"164.3520","NORAD_CAT_ID":"53084","MEAN_MOTION_DOT":"0.00001387","PERIOD":"95.920","COUNTRY_CODE":"US","RCS_SIZE":"LARGE","REV_AT_EPOCH":"2326","ARG_OF_PERICENTER":"3.2676","MEAN_ANOMALY":"356.8566","GP_ID":"220101041","LAUNCH_DATE":"2022-07-11","BSTAR":"0.00011255000000","MEAN_MOTION_DDOT":"0.0000000000000","EPOCH":"2022-12-11T13:44:39.379200","OBJECT_TYPE":"PAYLOAD","CLASSIFICATION_TYPE":"U","SEMIMAJOR_AXIS":"6941.166","DECAY_DATE":null,"FILE":"3691993","MEAN_ELEMENT_THEORY":"SGP4"},{"COUNTRY_CODE":"US","PERIOD":"95.919","NORAD_CAT_ID":"53085","MEAN_MOTION_DOT":"0.00005120","RA_OF_ASC_NODE":"164.4827","MEAN_ANOMALY":"338.5665","REV_AT_EPOCH":"2328","ARG_OF_PERICENTER":"21.5701","RCS_SIZE":"LARGE","BSTAR":"0.00040277000000","LAUNCH_DATE":"2022-07-11","MEAN_MOTION_DDOT":"0.0000000000000","EPOCH":"2022-12-11T16:51:17.429184","GP_ID":"220099789","MEAN_ELEMENT_THEORY":"SGP4","FILE":"3691993","DECAY_DATE":null,"CLASSIFICATION_TYPE":"U","SEMIMAJOR_AXIS":"6941.118","OBJECT_TYPE":"PAYLOAD","OBJECT_NAME":"STARLINK-4324","ECCENTRICITY":"0.00033770","PERIAPSIS":"560.639","CENTER_NAME":"EARTH","REF_FRAME":"TEME","INCLINATION":"97.6538","OBJECT_ID":"2022-077AU","TIME_SYSTEM":"UTC","TLE_LINE1":"1 53085U 22077AU  22345.70228506  .00005120  00000-0  40277-3 0  9996","MEAN_MOTION":"15.01269239","ELEMENT_SET_NO":"999","APOAPSIS":"565.327","EPHEMERIS_TYPE":"0","SITE":"AFWTR","TLE_LINE2":"2 53085  97.6538 164.4827 0003377  21.5701 338.5665 15.01269239 23288"},{"RA_OF_ASC_NODE":"164.3492","MEAN_MOTION_DOT":"0.00002270","NORAD_CAT_ID":"53086","COUNTRY_CODE":"US","PERIOD":"95.920","RCS_SIZE":"LARGE","REV_AT_EPOCH":"2326","ARG_OF_PERICENTER":"13.8573","MEAN_ANOMALY":"346.2730","GP_ID":"220099540","LAUNCH_DATE":"2022-07-11","MEAN_MOTION_DDOT":"0.0000000000000","EPOCH":"2022-12-11T13:41:59.426016","BSTAR":"0.00018127000000","OBJECT_TYPE":"PAYLOAD","SEMIMAJOR_AXIS":"6941.156","CLASSIFICATION_TYPE":"U","DECAY_DATE":null,"FILE":"3691993","MEAN_ELEMENT_THEORY":"SGP4","PERIAPSIS":"560.999","ECCENTRICITY":"0.00029120","OBJECT_NAME":"STARLINK-4318","INCLINATION":"97.6528","REF_FRAME":"TEME","CENTER_NAME":"EARTH","TLE_LINE1":"1 53086U 22077AV  22345.57082669  .00002270  00000-0  18127-3 0  9992","TIME_SYSTEM":"UTC","OBJECT_ID":"2022-077AV","SITE":"AFWTR","TLE_LINE2":"2 53086  97.6528 164.3492 0002912  13.8573 346.2730 15.01257136 23260","EPHEMERIS_TYPE":"0","APOAPSIS":"565.042","ELEMENT_SET_NO":"999","MEAN_MOTION":"15.01257136"},{"OBJECT_NAME":"STARLINK-4329","PERIAPSIS":"561.232","ECCENTRICITY":"0.00025700","CENTER_NAME":"EARTH","REF_FRAME":"TEME","INCLINATION":"97.6510","OBJECT_ID":"2022-077AW","TIME_SYSTEM":"UTC","TLE_LINE1":"1 53087U 22077AW  22345.49887980  .00008353  00000-0  65415-3 0  9993","MEAN_MOTION":"15.01258653","APOAPSIS":"564.800","ELEMENT_SET_NO":"999","EPHEMERIS_TYPE":"0","TLE_LINE2":"2 53087  97.6510 164.2722 0002570   8.0029 352.1236 15.01258653 23250","SITE":"AFWTR","COUNTRY_CODE":"US","PERIOD":"95.920","NORAD_CAT_ID":"53087","MEAN_MOTION_DOT":"0.00008353","RA_OF_ASC_NODE":"164.2722","MEAN_ANOMALY":"352.1236","ARG_OF_PERICENTER":"8.0029","REV_AT_EPOCH":"2325","RCS_SIZE":"LARGE","LAUNCH_DATE":"2022-07-11","EPOCH":"2022-12-11T11:58:23.214720","MEAN_MOTION_DDOT":"0.0000000000000","BSTAR":"0.00065415000000","GP_ID":"220055656","MEAN_ELEMENT_THEORY":"SGP4","FILE":"3691213","DECAY_DATE":null,"CLASSIFICATION_TYPE":"U","SEMIMAJOR_AXIS":"6941.151","OBJECT_TYPE":"PAYLOAD"},{"MEAN_ELEMENT_THEORY":"SGP4","FILE":"3691301","DECAY_DATE":null,"CLASSIFICATION_TYPE":"U","SEMIMAJOR_AXIS":"6941.108","OBJECT_TYPE":"PAYLOAD","LAUNCH_DATE":"2022-07-11","MEAN_MOTION_DDOT":"0.0000000000000","EPOCH":"2022-12-11T12:00:40.791168","BSTAR":"0.00073006000000","GP_ID":"220058167","MEAN_ANOMALY":"348.0466","REV_AT_EPOCH":"2383","ARG_OF_PERICENTER":"12.0828","RCS_SIZE":"LARGE","COUNTRY_CODE":"US","PERIOD":"95.919","MEAN_MOTION_DOT":"0.00009334","NORAD_CAT_ID":"53088","RA_OF_ASC_NODE":"164.2828","MEAN_MOTION":"15.01272543","APOAPSIS":"564.992","ELEMENT_SET_NO":"999","EPHEMERIS_TYPE":"0","SITE":"AFWTR","TLE_LINE2":"2 53088  97.6532 164.2828 0002908  12.0828 348.0466 15.01272543 23836","OBJECT_ID":"2022-077AX","TIME_SYSTEM":"UTC","TLE_LINE1":"1 53088U 22077AX  22345.50047212  .00009334  00000-0  73006-3 0  9997","CENTER_NAME":"EARTH","REF_FRAME":"TEME","INCLINATION":"97.6532","OBJECT_NAME":"STARLINK-4333","PERIAPSIS":"560.955","ECCENTRICITY":"0.00029080"}];
